ONEWEB-0201             
1 48241U 21031AH  21219.91667824  .00000014  00000-0  00000+0 0  9998
2 48241  87.8737 282.4843 0008759 261.3787  24.6407 13.57907985 15233
ONEWEB-0207             
1 48242U 21031AJ  21219.91667824  .00000014  00000-0  00000+0 0  9999
2 48242  87.8576 282.4411 0006314 287.8028 338.5776 13.44549021 15169
ONEWEB-0208             
1 48243U 21031AK  21219.91667824  .00000014  00000-0  00000+0 0  9990
2 48243  87.8694 282.4467 0004719 278.5282  16.8675 13.48446927 15178
ONEWEB-0200             
1 48244U 21031AL  21219.91667824  .00000014  00000-0  00000+0 0  9991
2 48244  87.8945 282.4108 0008876 276.3945 352.6205 13.44467677 15104
ONEWEB-0217             
1 48245U 21031AM  21219.91667824  .00000014  00000-0  00000+0 0  9992
2 48245  87.8964 282.4157 0005667 301.7157 346.8599 13.37752546 15063
ONEWEB-0211             
1 48767U 21045A   21219.91667824 -.01350790  00000-0 -56286+0 0  9995
2 48767  87.6500 253.3744 0008484  36.5836 296.9577 14.30133329 11986
ONEWEB-0223             
1 48768U 21045B   21219.91667824 -.01386460  00000-0 -66279+0 0  9992
2 48768  87.6358 253.3476 0011131  15.4610 261.0844 14.23051684 11995
ONEWEB-0230             
1 48769U 21045C   21219.91667824 -.01314870  00000-0 -31109+0 0  9993
2 48769  87.8080 253.2755 0007740  28.3543 197.4044 14.57672374 12063
ONEWEB-0237             
1 48770U 21045D   21219.58335648 -.01434290  00000-0 -74897+0 0  9994
2 48770  87.5769 253.4384 0012110  30.9549 239.4370 14.17877693 11894
ONEWEB-0235             
1 48771U 21045E   21219.91667824 -.01365029  00000-0 -71746+0 0  9999
2 48771  87.6231 253.4820 0007285  42.0026 348.4784 14.17965074 11921
ONEWEB-0242             
1 48772U 21045F   21219.83335648 -.01456467  00000-0 -61188+0 0  9993
2 48772  87.6770 253.3685 0011912  35.6002 271.8262 14.29372502 11989
ONEWEB-0241             
1 48773U 21045G   21219.91667824 -.01386055  00000-0 -68519+0 0  9997
2 48773  87.6276 253.3252 0008046  27.6657 309.2983 14.21291831 11952
ONEWEB-0243             
1 48774U 21045H   21219.91667824 -.01408116  00000-0 -80020+0 0  9992
2 48774  87.5820 253.3994 0011988  33.0550 206.5252 14.13851341 11937
ONEWEB-0222             
1 48775U 21045J   21219.58335648 -.01374309  00000-0 -65262+0 0  9999
2 48775  87.6268 253.4257 0011772  28.4325 164.6905 14.23364657 11925
ONEWEB-0244             
1 48776U 21045K   21219.91667824 -.01198844  00000-0 -33892+0 0  9993
2 48776  87.7026 253.3203 0007395  40.2417  43.5972 14.49056134 12026
ONEWEB-0247             
1 48777U 21045L   21219.91667824 -.01398136  00000-0 -75788+0 0  9990
2 48777  87.5827 253.3116 0007784  29.7240 144.0221 14.16399055 11956
ONEWEB-0245             
1 48778U 21045M   21219.91667824 -.01388541  00000-0 -69937+0 0  9999
2 48778  87.6048 253.3508 0012109  27.6575 158.5928 14.20283378 11952
ONEWEB-0229             
1 48779U 21045N   21219.58335648 -.01436287  00000-0 -76351+0 0  9998
2 48779  87.5722 253.4371 0008341  44.4083 195.9912 14.16946349 11906
ONEWEB-0228             
1 48780U 21045P   21219.58335648 -.01431402  00000-0 -78900+0 0  9996
2 48780  87.5673 253.4537 0010754  18.1516  98.9448 14.14970157 11893
ONEWEB-0232             
1 48781U 21045Q   21219.91667824 -.01295646  00000-0 -25039+0 0  9991
2 48781  87.8377 253.1671 0010775  32.9818 195.4433 14.66715409 12090
ONEWEB-0231             
1 48782U 21045R   21219.91667824 -.01422318  00000-0 -75013+0 0  9997
2 48782  87.5864 253.3237 0010440  38.8047  31.4729 14.17326863 11967
ONEWEB-0234             
1 48783U 21045S   21219.58335648 -.01190243  00000-0 -39814+0 0  9995
2 48783  87.6423 253.3875 0009799  17.7322  68.5363 14.40799449 11937
ONEWEB-0238             
1 48784U 21045T   21219.91667824 -.01388063  00000-0 -70605+0 0  9999
2 48784  87.6012 253.3470 0010866  32.3531 357.6374 14.19764823 11966
ONEWEB-0240             
1 48785U 21045U   21219.91667824 -.01422794  00000-0 -63383+0 0  9995
2 48785  87.6478 253.4006 0008313  32.4020 278.3010 14.26268146 11980
ONEWEB-0246             
1 48786U 21045V   21219.91667824 -.01389171  00000-0 -85484+0 0  9993
2 48786  87.5311 253.3432 0009092  51.4701  97.7005 14.09463940 11909
ONEWEB-0210             
1 48787U 21045W   21219.91667824 -.01382535  00000-0 -78425+0 0  9998
2 48787  87.5641 253.3495 0010493  15.1460 306.4447 14.13885438 11939
ONEWEB-0214             
1 48788U 21045X   21219.58335648 -.01389114  00000-0 -78374+0 0  9991
2 48788  87.5582 253.4609 0007288  38.4875  12.6232 14.14211746 11853
ONEWEB-0221             
1 48789U 21045Y   21219.58335648 -.01443316  00000-0 -65546+0 0  9994
2 48789  87.6296 253.4362 0010992  10.8698 126.8988 14.25298104  3511
ONEWEB-0213             
1 48790U 21045Z   21219.91667824 -.01387065  00000-0 -69302+0 0  9999
2 48790  87.6160 253.3555 0011557  18.9686 349.1099 14.20711325 11983
ONEWEB-0212             
1 48791U 21045AA  21219.91667824 -.01305896  00000-0 -53848+0 0  9990
2 48791  87.6369 253.3399 0012136  17.4056 266.8125 14.30525337 11993
ONEWEB-0227             
1 48792U 21045AB  21219.91667824 -.01389282  00000-0 -76195+0 0  9992
2 48792  87.5563 253.4106 0008400  23.2959 290.8247 14.15739901 11946
ONEWEB-0226             
1 48793U 21045AC  21219.58335648 -.01439597  00000-0 -78763+0 0  9990
2 48793  87.5896 253.4176 0011672  40.9530 344.4009 14.15386389  3502
ONEWEB-0224             
1 48794U 21045AD  21219.58335648 -.01362550  00000-0 -82634+0 0  9997
2 48794  87.5474 253.4085 0008706  29.2369 237.2667 14.10190190 11830
ONEWEB-0233             
1 48795U 21045AE  21219.58335648 -.01382656  00000-0 -78125+0 0  9997
2 48795  87.5487 253.3860 0007473  45.2979 255.5611 14.14112635  3587
ONEWEB-0190             
1 48796U 21045AF  21219.58335648 -.01388699  00000-0 -71116+0 0  9994
2 48796  87.5903 253.4081 0011537  41.7210 242.0826 14.19402345  3520
ONEWEB-0236             
1 48797U 21045AG  21219.58335648 -.01417757  00000-0 -88126+0 0  9992
2 48797  87.5506 253.3983 0008394  45.9744 343.1194 14.08993582  3511
ONEWEB-0248             
1 48798U 21045AH  21219.58335648 -.01447720  00000-0 -61431+0 0  9996
2 48798  87.6583 253.4385 0010389  33.2167 303.0004 14.28844668  3541
ONEWEB-0225             
1 48799U 21045AJ  21219.58335648 -.01434629  00000-0 -57044+0 0  9996
2 48799  87.6661 253.4178 0008945  44.0835 118.1200 14.32166752  3523
ONEWEB-0215             
1 48800U 21045AK  21219.58335648 -.01317047  00000-0 -70799+0 0  9995
2 48800  87.5829 253.3951 0009881  42.9061  77.4159 14.16609527  3509
ONEWEB-0216             
1 48801U 21045AL  21219.83335648 -.00012862  00000-0 -69579-2 0  9997
2 48801  87.5313 253.4150 0009000  45.9706  68.1447 14.12746995 11897
ONEWEB-0239             
1 48802U 21045AM  21219.83335648 -.00012111  00000-0 -60768-2 0  9996
2 48802  87.5788 253.5347 0012998  36.5270 295.0840 14.16751139 11927
ONEWEB-0249             
1 48967U 21060A   21219.91667824 -.01381063  00000-0 -23549+0 0  9997
2 48967  87.5046 224.6813 0008452 129.6085 227.0059 14.72428977  6969
ONEWEB-0250             
1 48968U 21060B   21219.58335648 -.01475737  00000-0 -26214+0 0  9991
2 48968  87.4894 224.7760 0009682 116.6039  80.4740 14.70871333  3605
ONEWEB-0251             
1 48969U 21060C   21219.58335648 -.00046617  00000-0 -14855-2 0  9993
2 48969  87.4172 224.3016 0012343 136.4168 349.5216 15.32729098  6964
ONEWEB-0252             
1 48970U 21060D   21219.58335648 -.00042406  00000-0 -57093-2 0  9998
2 48970  87.4998 224.7432 0012639 130.4644  67.6672 14.79523416  6925
ONEWEB-0253             
1 48971U 21060E   21219.83335648 -.01366973  00000-0 -23711+0 0  9993
2 48971  87.4841 224.6863 0009843 116.9172  86.1777 14.71639205  6937
ONEWEB-0254             
1 48972U 21060F   21219.58335648 -.01446825  00000-0 -26657+0 0  9993
2 48972  87.4798 224.7847 0012759 135.7332 186.7886 14.69168164  3583
ONEWEB-0255             
1 48973U 21060G   21219.58335648 -.01420759  00000-0 -19161+0 0  9994
2 48973  87.5080 224.7490 0007802 125.5570  14.2126 14.82457850  6928
ONEWEB-0256             
1 48974U 21060H   21219.58335648 -.01410220  00000-0 -21385+0 0  9998
2 48974  87.5147 224.7677 0013485 130.8177 133.7357 14.77456377  6915
ONEWEB-0257             
1 48975U 21060J   21219.58335648 -.01475832  00000-0 -25991+0 0  9996
2 48975  87.4926 224.8014 0011707 116.0809  59.7033 14.71221987  3612
ONEWEB-0258             
1 48976U 21060K   21219.58335648 -.01472330  00000-0 -26852+0 0  9994
2 48976  87.4736 224.7881 0009929 123.1564 146.9178 14.69710733  3587
ONEWEB-0259             
1 48977U 21060L   21219.58335648 -.01445509  00000-0 -23018+0 0  9994
2 48977  87.5157 224.7447 0013524 132.5210 106.4091 14.75461681  3602
ONEWEB-0260             
1 48978U 21060M   21219.58335648 -.01402306  00000-0 -23180+0 0  9993
2 48978  87.4931 224.7607 0008981 119.8906 210.6317 14.73814028  6899
ONEWEB-0261             
1 48979U 21060N   21219.58335648 -.00040884  00000-0 -55665-2 0  9998
2 48979  87.5077 224.7287 0012218 130.6684 125.9611 14.79044695  3600
ONEWEB-0262             
1 48980U 21060P   21219.58335648 -.01466262  00000-0 -23872+0 0  9995
2 48980  87.5138 224.7806 0010487 128.7197 354.6538 14.74601537  3619
ONEWEB-0263             
1 48981U 21060Q   21219.58335648 -.01486464  00000-0 -26774+0 0  9996
2 48981  87.4852 224.7883 0010738 115.4784  41.6216 14.70280262  3598
ONEWEB-0264             
1 48982U 21060R   21219.58335648 -.01475059  00000-0 -28171+0 0  9998
2 48982  87.4589 224.7858 0011010 138.0121  71.6991 14.67681458  6895
ONEWEB-0265             
1 48983U 21060S   21219.58335648 -.00045394  00000-0 -11154-2 0  9999
2 48983  87.3962 224.2241 0009100 125.7942  62.7517 15.40850590  3622
ONEWEB-0266             
1 48984U 21060T   21219.58335648 -.01442087  00000-0 -25746+0 0  9990
2 48984  87.4914 224.7746 0012638 133.9328 295.7508 14.70533917  3581
